IRIDIUM 26              
1 24903U 97043A   25279.44635476  .00000721  00000+0  23569-3 0  9992
2 24903  86.3929  63.8378 0002315  89.3484 270.7979 14.37239767472721
IRIDIUM 22              
1 24907U 97043E   25279.46842878  .00000651  00000+0  21720-3 0  9993
2 24907  86.3926  67.4658 0002158  87.3998 272.7446 14.36041913472742
DUMMY MASS 1            
1 24925U 97048A   25279.51774381  .00000791  00000+0  85046-4 0  9994
2 24925  86.3294  83.8167 0008891 105.8831 254.3375 14.87085471521676
DUMMY MASS 2            
1 24926U 97048B   25279.49846006  .00000780  00000+0  84313-4 0  9990
2 24926  86.3292  85.4553 0009460 115.5629 244.6575 14.86836554521442
IRIDIUM 29              
1 24944U 97051A   25279.52102413  .00000745  00000+0  24693-3 0  9990
2 24944  86.3896  97.1771 0001921  87.5790 272.5627 14.36564290469253
IRIDIUM 33              
1 24946U 97051C   25279.48629821  .00000557  00000+0  18876-3 0  9991
2 24946  86.3812  96.4614 0009943  78.1139 282.1171 14.34962856468704
IRIDIUM 28              
1 24948U 97051E   25279.49382928  .00000732  00000+0  23824-3 0  9992
2 24948  86.3902  94.6383 0002661  86.5980 273.5522 14.37470665469830
